IRIDIUM 144             
1 43249U 18030A   24298.73295782  .00000130  00000+0  39212-4 0  9996
2 43249  86.4029 181.3798 0002169  80.5515 279.5926 14.34213454344071
IRIDIUM 149             
1 43250U 18030B   24299.71605517  .00000734  00000+0  25509-3 0  9991
2 43250  86.4028 180.9438 0002012  77.9722 282.1700 14.34221479344239
IRIDIUM 157             
1 43251U 18030C   24299.73509240  .00000725  00000+0  25187-3 0  9992
2 43251  86.4030 180.9756 0001828  79.7719 280.3683 14.34224796344219
IRIDIUM 140             
1 43252U 18030D   24298.77734590  .00000404  00000+0  13735-3 0  9994
2 43252  86.4033 181.3893 0002266  85.4849 274.6605 14.34222221344137
IRIDIUM 145             
1 43253U 18030E   24299.60189090  .00000579  00000+0  19965-3 0  9991
2 43253  86.4030 181.0186 0002527  78.4542 281.6938 14.34219877344184
IRIDIUM 146             
1 43254U 18030F   24299.72239474  .00000263  00000+0  87012-4 0  9996
2 43254  86.4030 180.9826 0002370  78.3803 281.7658 14.34214897344210
IRIDIUM 148             
1 43255U 18030G   24299.76045068  .00000731  00000+0  25406-3 0  9993
2 43255  86.4031 181.0008 0002048  76.9539 283.1885 14.34222663344261
IRIDIUM 142             
1 43256U 18030H   24299.72874755  .00000678  00000+0  23502-3 0  9998
2 43256  86.4027 180.9250 0002352  73.2380 286.9073 14.34224760344211
